"spkid","full_name","pdes","name","prefix","neo","pha","sats","H","G","M1","M2","K1","K2","PC","diameter","extent","albedo","rot_per","GM","BV","UB","IR","spec_B","spec_T","H_sigma","diameter_sigma","orbit_id","epoch","epoch_mjd","epoch_cal","equinox","e","a","q","i","om","w","ma","ad","n","tp","tp_cal","per","per_y","moid","moid_ld","moid_jup","t_jup","sigma_e","sigma_a","sigma_q","sigma_i","sigma_om","sigma_w","sigma_ma","sigma_ad","sigma_n","sigma_tp","sigma_per","class","producer","data_arc","first_obs","last_obs","n_obs_used","n_del_obs_used","n_dop_obs_used","condition_code","rms","two_body","A1","A1_sigma","A2","A2_sigma","A3","A3_sigma","DT","DT_sigma"
54199100,"       (2015 RY345)","2015 RY345",,,N,N,0,7.40,,,,,,,,,,,,,,,,,.44874,,1,2459800.5,59800,2022-08-09.0000000,J2000,.05453099335502049,40.51256231602832,38.30337204957813,35.37180854783505,91.03347836962915,79.02562905954308,212.5587179860067,42.72175258247852,.003822253665327117,2498374.936686785150,2128-03-20.4366868,94185.2717065,257.865220277892,37.4905,14590.177885,33.8111,4.672,.00040507,.0092923,.022347,.00029445,.002652,.8151,.91738,.0097991,1.3151E-6,241.24,32.405,TNO,"Otto Matic",1419,2015-01-13,2018-12-02,13,,,5,.22924,,,,,,,,,
54197760,"       (2015 TC361)","2015 TC361",,,N,N,0,7.7,,,,,,,,,,,,,,,,,.5166,,2,2459800.5,59800,2022-08-09.0000000,J2000,.1062124720569066,39.55937659974495,35.3576774180559,5.714651610225173,130.8092065733391,106.202113741858,143.5536495559443,43.76107578143401,.003961228684355059,2423560.822618355283,1923-05-21.3226184,90880.89294663201,248.818324289205,34.3512,13368.456504,29.9818,5.588,.00032466,.011997,.019746,.00043267,.011369,.20493,.25638,.013272,1.802E-6,57.868,41.343,TNO,"Otto Matic",1768,2013-11-08,2018-09-11,18,,,4,.22266,,,,,,,,,
54197764,"       (2015 TP361)","2015 TP361",,,N,N,0,7.7,,,,,,,,,,,,,,,,,.36431,,2,2459800.5,59800,2022-08-09.0000000,J2000,.1284761280658672,39.67259498843882,34.57561359399887,9.632104600597062,150.0151030962972,102.3002061151477,121.4096371203752,44.76957638287877,.003944283846096116,2429019.338740385956,1938-04-30.8387404,91271.32175244251,249.887260102512,33.5755,13066.577335,29.3074,5.531,.0014172,.015622,.056442,.0014554,.0091286,.33527,.52019,.017629,2.3297E-6,124.8,53.91,TNO,"Otto Matic",1047,2013-10-13,2016-08-25,21,,,5,.12705,,,,,,,,,
3841640,"       (2015 TK363)","2015 TK363",,,N,N,0,7.20,,,,,,,,,,,,,,,,,.47113,,5,2459800.5,59800,2022-08-09.0000000,J2000,.07019808551960638,41.17839555378701,38.28775102114209,14.77575513648783,142.845379751288,179.3569205408874,66.97830348684218,44.06904008643194,.003729923651967608,2441843.482715876824,1973-06-09.9827159,96516.7208744589,264.248380217547,37.2749,14506.272833,33.24,5.553,.00023352,.0056919,.0088918,.00025814,.0020857,.11601,.096666,.0060914,7.7335E-7,23.782,20.011,TNO,"Otto Matic",1904,2013-09-12,2018-11-29,68,,,4,.12724,,,,,,,,,
54208620,"       (2015 TX363)","2015 TX363",,,N,N,0,8.0,,,,,,,,,,,,,,,,,.35489,,2,2459800.5,59800,2022-08-09.0000000,J2000,.02342452223113247,40.55817457450341,39.60811871252881,16.95283029275028,146.879544098853,143.8563589887283,106.8543553566863,41.50823043647802,.00381580764311131,2431797.422971316235,1945-12-07.9229713,94344.37835196152,258.300830532407,38.6063,15024.413771,34.5357,5.468,.00081334,.011614,.030561,.00061396,.0044746,.7257,.80435,.011886,1.6391E-6,200.29,40.525,TNO,"Otto Matic",1492,2014-10-29,2018-11-29,21,,,5,.093917,,,,,,,,,
54017337,"       (2015 TQ408)","2015 TQ408",,,N,N,0,8.09,,,,,,,,,,,,,,,,,.094232,,4,2459800.5,59800,2022-08-09.0000000,J2000,.2734500557413674,39.71249170813033,28.8531086369135,14.21654801315003,2.736125031660864,359.3485132946242,27.87869241121134,50.57187477934716,.003938341466881054,2452721.709944426248,2003-03-23.2099444,91409.0367804242,250.264303300272,27.8505,10838.579085,23.8977,5.283,.00022151,.014928,.0020567,.00012509,.00026554,.017884,.025396,.01901,2.2206E-6,2.4888,51.541,TNO,"Otto Matic",6968,2002-09-05,2021-10-03,34,,,4,.33821,,,,,,,,,
3830941,"       (2015 VJ164)","2015 VJ164",,,N,N,0,7.6,,,,,,,,,,,,,,,,,.21426,,2,2459800.5,59800,2022-08-09.0000000,J2000,.202030210868227,39.53265025853557,31.54586059062376,6.343879276809825,57.29231312082042,209.2115557897098,136.030570814069,47.51943992644738,.003965246390230738,2425494.795529980074,1928-09-05.2955300,90788.80971607204,248.566214143934,30.5315,11881.943855,26.2722,5.498,.0010134,.016573,.027454,.0018454,.0024209,.36943,.58799,.019921,2.4935E-6,127.09,57.091,TNO,"Otto Matic",801,2014-11-17,2017-01-26,45,,,5,.20194,,,,,,,,,
3830944,"       (2015 VK164)","2015 VK164",,,N,N,0,9.3,,,,,,,,,,,,,,,,,.21375,,2,2459800.5,59800,2022-08-09.0000000,J2000,.2498801836994237,39.40704053299626,29.56000200556051,1.965387586302937,185.9199847186667,254.9294813167209,350.6008871134511,49.254079060432,.003984220291660831,2462159.584638523066,2029-01-23.0846385,90356.44960533375,247.382476674425,28.5773,11121.427841,24.4555,5.458,.00017894,.0060221,.0034643,.00047654,.013174,.057399,.028872,.0075269,9.1329E-7,7.5629,20.712,TNO,"Otto Matic",1040,2014-11-17,2017-09-22,40,,,4,.15014,,,,,,,,,
3830943,"       (2015 VL164)","2015 VL164",,,N,N,0,10.2,,,,,,,,,,,,,,,,,.2899,,2,2459800.5,59800,2022-08-09.0000000,J2000,.2426553021433758,39.55442351656556,29.95633292704629,11.58153301886127,220.3795891115726,169.0757615945857,21.20675563270337,49.15251410608482,.003961972756988359,2454447.925175930942,2007-12-13.4251759,90863.82519037038,248.771595319289,28.9627,11271.413959,25.0046,5.372,.00016095,.0055989,.0036748,.0007203,.00062208,.09037,.050264,.0069575,8.4122E-7,13.11,19.292,TNO,"Otto Matic",1125,2014-11-17,2017-12-16,31,,,4,.23474,,,,,,,,,
3830946,"       (2015 VM164)","2015 VM164",,,N,N,0,9.9,,,,,,,,,,,,,,,,,.22786,,2,2459800.5,59800,2022-08-09.0000000,J2000,.2573217994124234,39.4721758514906,29.31512453466143,18.26115799351903,54.12371723765963,332.5140779740732,22.10466132740439,49.62922716831977,.003974362472967582,2454238.686884625235,2007-05-18.1868846,90580.56542366523,247.996072344053,28.331,11025.57527,24.3966,5.187,.00011068,.0042689,.00251,.00055647,.00016253,.055397,.029663,.0053674,6.4474E-7,7.6932,14.694,TNO,"Otto Matic",1125,2014-11-17,2017-12-16,51,,,4,.15751,,,,,,,,,
3830945,"       (2015 VN164)","2015 VN164",,,N,N,0,8.7,,,,,,,,,,,,,,,,,.35209,,2,2459800.5,59800,2022-08-09.0000000,J2000,.2392641643395167,39.57294260776699,30.10455556426396,9.416519201440352,62.02313608513776,89.27365365191362,294.1474416599511,49.04132965127001,.003959191934590585,2476433.327967926907,2068-02-21.8279679,90927.64532448137,248.9463253237,29.1308,11336.833436,24.7768,5.415,.00059912,.012997,.014697,.0010382,.0015176,.038149,.10144,.016106,1.9504E-6,17.561,44.794,TNO,"Otto Matic",1125,2014-11-17,2017-12-16,38,,,4,.14911,,,,,,,,,
3830948,"       (2015 VO164)","2015 VO164",,,N,N,0,8.7,,,,,,,,,,,,,,,,,.20927,,3,2459800.5,59800,2022-08-09.0000000,J2000,.3056471223442087,39.76313649826859,27.60964825219282,14.14566158387376,58.12976836040504,355.956068151925,6.545985100089267,51.91662474434436,.003930819690263521,2458135.202271817910,2018-01-16.7022718,91583.95153349444,250.743193794646,26.6219,10360.444823,22.5981,5.235,6.8334E-5,.0046403,.00061725,.00068096,.00045414,.041123,.02068,.0060586,6.8809E-7,5.2989,16.032,TNO,"Otto Matic",1652,2015-08-11,2020-02-18,35,,,4,.10277,,,,,,,,,
3830942,"       (2015 VP164)","2015 VP164",,,N,N,0,8.9,,,,,,,,,,,,,,,,,.19291,,2,2459800.5,59800,2022-08-09.0000000,J2000,.2569022489018726,39.44891414659573,29.31439938559839,5.288070834105983,223.5764410000601,127.4228522754559,48.08158425202599,49.58342890759307,.003977878314013647,2447713.256385070999,1989-07-05.7563851,90500.50594352216,247.776881433326,28.3114,11017.947538,24.371,5.431,.00070915,.016037,.016726,.001152,.0022893,.081226,.01971,.020156,2.4256E-6,5.7105,55.185,TNO,"Otto Matic",764,2015-08-20,2017-09-22,29,,,4,.17726,,,,,,,,,
3830947,"       (2015 VQ164)","2015 VQ164",,,N,N,0,9.8,,,,,,,,,,,,,,,,,.33812,,2,2459800.5,59800,2022-08-09.0000000,J2000,.2483466472513667,39.7617242266266,29.88703332601044,15.01730515327689,55.5823710819238,8.876934879474128,3.219672994905375,49.63641512724276,.003931029116586704,2458981.459260433816,2020-05-11.9592604,91579.0723810732,250.729835403349,28.902,11247.79134,24.8543,5.303,.00069374,.018488,.014813,.0014975,.00016135,.84171,.49003,.023079,2.7417E-6,124.16,63.872,TNO,"Otto Matic",448,2015-11-06,2017-01-27,21,,,5,.19796,,,,,,,,,
3830949,"       (2015 VR164)","2015 VR164",,,N,N,0,8.27,,,,,,,,,,,,,,,,,.13737,,3,2459800.5,59800,2022-08-09.0000000,J2000,.2102007777186727,39.45513579155469,31.16163556317406,1.654420618353648,100.1576115250319,316.8612754644646,7.239720598914401,47.74863601993533,.003976937449014282,2457980.073933025065,2017-08-14.5739330,90521.91657910764,247.835500558816,30.1746,11743.049082,26.1411,5.514,.00011439,.0066949,.00080017,.00042116,.015068,.044282,.025518,.0081021,1.0122E-6,6.6637,23.04,TNO,"Otto Matic",2269,2015-08-20,2021-11-05,31,,,4,.11429,,,,,,,,,
3830951,"       (2015 VS164)","2015 VS164",,,N,N,0,8.6,,,,,,,,,,,,,,,,,.24026,,3,2459800.5,59800,2022-08-09.0000000,J2000,.15500824129835,39.493870583715,33.3719951624687,20.69123390205097,228.7093412489698,235.8275036493851,331.4566151694316,45.6157460049613,.003971088133697586,2466988.299381322452,2042-04-13.7993813,90655.25313959586,248.200556165902,32.4338,12622.261946,28.4427,5.224,.00020967,.0054775,.0076075,.0010392,.00028551,.091499,.060333,.0063265,8.2614E-7,14.792,18.86,TNO,"Otto Matic",1913,2015-08-20,2020-11-14,28,,,4,.1546,,,,,,,,,
